[{"OBJECT_NAME":"STARLINK-30184","OBJECT_ID":"2023-096W","EPOCH":"2026-03-09T09:07:17.082048","MEAN_MOTION":15.26752307,"ECCENTRICITY":0.00012107,"INCLINATION":42.9995,"RA_OF_ASC_NODE":196.192,"ARG_OF_PERICENTER":235.1577,"MEAN_ANOMALY":124.9161,"EPHEMERIS_TYPE":0,"CLASSIFICATION_TYPE":"U","NORAD_CAT_ID":57310,"ELEMENT_SET_NO":999,"REV_AT_EPOCH":14700,"BSTAR":-0.00024898244,"MEAN_MOTION_DOT":-6.934e-5,"MEAN_MOTION_DDOT":0},{"OBJECT_NAME":"OBJECT D","OBJECT_ID":"2024-203D","EPOCH":"2026-03-09T23:01:14.628576","MEAN_MOTION":15.25394324,"ECCENTRICITY":0.00105281,"INCLINATION":97.4343,"RA_OF_ASC_NODE":139.6527,"ARG_OF_PERICENTER":340.1906,"MEAN_ANOMALY":19.8921,"EPHEMERIS_TYPE":0,"CLASSIFICATION_TYPE":"U","NORAD_CAT_ID":61872,"ELEMENT_SET_NO":999,"REV_AT_EPOCH":7378,"BSTAR":0.00059366578,"MEAN_MOTION_DOT":0.00014956,"MEAN_MOTION_DDOT":0}]
